{"type": "FeatureCollection", "features": [ {"type": "Feature", "properties": {"norad_id": 67010, "name": "STARLINK-36189", "group": "last-30-days", "lat": -56.82619240686727, "lon": 140.40266306350662, "alt_km": 345.81984891622324, "timestamp": "2025-12-25T14:48:23.572191+00:00", "meta": {"OBJECT_NAME": "STARLINK-36189", "OBJECT_ID": "2025-293H", "EPOCH": "2025-12-25T06:00:04.000320", "MEAN_MOTION": 15.77493402, "ECCENTRICITY": 0.00035459, "INCLINATION": 69.9933, "RA_OF_ASC_NODE": 287.5704, "ARG_OF_PERICENTER": 271.1433, "MEAN_ANOMALY": 49.7178, "EPHEMERIS_TYPE": 0, "CLASSIFICATION_TYPE": "U", "NORAD_CAT_ID": 67010, "ELEMENT_SET_NO": 999, "REV_AT_EPOCH": 218, "BSTAR": -0.010962186, "MEAN_MOTION_DOT": -0.01593995, "MEAN_MOTION_DDOT": 0}, "tle": {"line1": "1 67010U 25293H   25359.25004630 -.01593995  00000+0 -10962-1 0  9990", "line2": "2 67010  69.9933 287.5704 0003545 271.1433  49.7178 15.77493402  2185"}}, "geometry": {"type": "Point", "coordinates": [140.40266306350662, -56.82619240686727]}}, {"type": "Feature", "properties": {"norad_id": 67011, "name": "STARLINK-36167", "group": "last-30-days", "lat": -54.850685937471034, "lon": 137.6957927619491, "alt_km": 345.777989385876, "timestamp": "2025-12-25T14:48:23.572199+00:00", "meta": {"OBJECT_NAME": "STARLINK-36167", "OBJECT_ID": "2025-293J", "EPOCH": "2025-12-25T06:00:04.000320", "MEAN_MOTION": 15.7751722, "ECCENTRICITY": 0.00035254, "INCLINATION": 69.9931, "RA_OF_ASC_NODE": 287.5728, "ARG_OF_PERICENTER": 271.7698, "MEAN_ANOMALY": 46.5621, "EPHEMERIS_TYPE": 0, "CLASSIFICATION_TYPE": "U", "NORAD_CAT_ID": 67011, "ELEMENT_SET_NO": 999, "REV_AT_EPOCH": 212, "BSTAR": -0.010930418, "MEAN_MOTION_DOT": -0.01591432, "MEAN_MOTION_DDOT": 0}, "tle": {"line1": "1 67011U 25293J   25359.25004630 -.01591432  00000+0 -10930-1 0  9990", "line2": "2 67011  69.9931 287.5728 0003525 271.7698  46.5621 15.77517220  2124"}}, "geometry": {"type": "Point", "coordinates": [137.6957927619491, -54.850685937471034]}}, {"type": "Feature", "properties": {"norad_id": 67012, "name": "STARLINK-36175", "group": "last-30-days", "lat": -58.48550261006632, "lon": 142.9863585006174, "alt_km": 345.832186768489, "timestamp": "2025-12-25T14:48:23.572208+00:00", "meta": {"OBJECT_NAME": "STARLINK-36175", "OBJECT_ID": "2025-293K", "EPOCH": "2025-12-25T06:00:04.000320", "MEAN_MOTION": 15.77482479, "ECCENTRICITY": 0.00036067, "INCLINATION": 69.9929, "RA_OF_ASC_NODE": 287.5675, "ARG_OF_PERICENTER": 272.7212, "MEAN_ANOMALY": 50.3183, "EPHEMERIS_TYPE": 0, "CLASSIFICATION_TYPE": "U", "NORAD_CAT_ID": 67012, "ELEMENT_SET_NO": 999, "REV_AT_EPOCH": 212, "BSTAR": -0.010958126, "MEAN_MOTION_DOT": -0.01592859, "MEAN_MOTION_DDOT": 0}, "tle": {"line1": "1 67012U 25293K   25359.25004630 -.01592859  00000+0 -10958-1 0  9995", "line2": "2 67012  69.9929 287.5675 0003606 272.7212  50.3183 15.77482479  2129"}}, "geometry": {"type": "Point", "coordinates": [142.9863585006174, -58.48550261006632]}}, {"type": "Feature", "properties": {"norad_id": 67013, "name": "STARLINK-35856", "group": "last-30-days", "lat": -60.307587696827305, "lon": 146.24111480996606, "alt_km": 345.72061793342255, "timestamp": "2025-12-25T14:48:23.572217+00:00", "meta": {"OBJECT_NAME": "STARLINK-35856", "OBJECT_ID": "2025-293L", "EPOCH": "2025-12-25T06:00:04.000320", "MEAN_MOTION": 15.77463028, "ECCENTRICITY": 0.00038037, "INCLINATION": 69.9928, "RA_OF_ASC_NODE": 287.5641, "ARG_OF_PERICENTER": 270.7124, "MEAN_ANOMALY": 54.8211, "EPHEMERIS_TYPE": 0, "CLASSIFICATION_TYPE": "U", "NORAD_CAT_ID": 67013, "ELEMENT_SET_NO": 999, "REV_AT_EPOCH": 212, "BSTAR": -0.010989899, "MEAN_MOTION_DOT": -0.01595863, "MEAN_MOTION_DDOT": 0}, "tle": {"line1": "1 67013U 25293L   25359.25004630 -.01595863  00000+0 -10990-1 0  9990", "line2": "2 67013  69.9928 287.5641 0003803 270.7124  54.8211 15.77463028  2121"}}, "geometry": {"type": "Point", "coordinates": [146.24111480996606, -60.307587696827305]}}, {"type": "Feature", "properties": {"norad_id": 67014, "name": "STARLINK-36207", "group": "last-30-days", "lat": -61.963852189135835, "lon": 149.69563639863762, "alt_km": 345.7659790519174, "timestamp": "2025-12-25T14:48:23.572226+00:00", "meta": {"OBJECT_NAME": "STARLINK-36207", "OBJECT_ID": "2025-293M", "EPOCH": "2025-12-25T06:00:04.000320", "MEAN_MOTION": 15.77439587, "ECCENTRICITY": 0.00038297, "INCLINATION": 69.9933, "RA_OF_ASC_NODE": 287.5618, "ARG_OF_PERICENTER": 272.1034, "MEAN_ANOMALY": 55.8127, "EPHEMERIS_TYPE": 0, "CLASSIFICATION_TYPE": "U", "NORAD_CAT_ID": 67014, "ELEMENT_SET_NO": 999, "REV_AT_EPOCH": 218, "BSTAR": -0.010957352, "MEAN_MOTION_DOT": -0.01590307, "MEAN_MOTION_DDOT": 0}, "tle": {"line1": "1 67014U 25293M   25359.25004630 -.01590307  00000+0 -10957-1 0  9992", "line2": "2 67014  69.9933 287.5618 0003829 272.1034  55.8127 15.77439587  2182"}}, "geometry": {"type": "Point", "coordinates": [149.69563639863762, -61.963852189135835]}}, {"type": "Feature", "properties": {"norad_id": 67015, "name": "STARLINK-36093", "group": "last-30-days", "lat": -64.94055661253218, "lon": 157.71136464029965, "alt_km": 345.90271972792016, "timestamp": "2025-12-25T14:48:23.572234+00:00", "meta": {"OBJECT_NAME": "STARLINK-36093", "OBJECT_ID": "2025-293N", "EPOCH": "2025-12-25T06:00:04.000320", "MEAN_MOTION": 15.77409868, "ECCENTRICITY": 0.00036891, "INCLINATION": 69.9926, "RA_OF_ASC_NODE": 287.5557, "ARG_OF_PERICENTER": 269.8194, "MEAN_ANOMALY": 62.7984, "EPHEMERIS_TYPE": 0, "CLASSIFICATION_TYPE": "U", "NORAD_CAT_ID": 67015, "ELEMENT_SET_NO": 999, "REV_AT_EPOCH": 212, "BSTAR": -0.011019344, "MEAN_MOTION_DOT": -0.01596149, "MEAN_MOTION_DDOT": 0}, "tle": {"line1": "1 67015U 25293N   25359.25004630 -.01596149  00000+0 -11019-1 0  9993", "line2": "2 67015  69.9926 287.5557 0003689 269.8194  62.7984 15.77409868  2122"}}, "geometry": {"type": "Point", "coordinates": [157.71136464029965, -64.94055661253218]}}, {"type": "Feature", "properties": {"norad_id": 67016, "name": "STARLINK-36120", "group": "last-30-days", "lat": -63.44579331421106, "lon": 153.32792786942713, "alt_km": 345.90704387124697, "timestamp": "2025-12-25T14:48:23.572246+00:00", "meta": {"OBJECT_NAME": "STARLINK-36120", "OBJECT_ID": "2025-293P", "EPOCH": "2025-12-25T06:00:04.000320", "MEAN_MOTION": 15.77431906, "ECCENTRICITY": 0.00035993, "INCLINATION": 69.9929, "RA_OF_ASC_NODE": 287.5588, "ARG_OF_PERICENTER": 269.5861, "MEAN_ANOMALY": 60.5745, "EPHEMERIS_TYPE": 0, "CLASSIFICATION_TYPE": "U", "NORAD_CAT_ID": 67016, "ELEMENT_SET_NO": 999, "REV_AT_EPOCH": 212, "BSTAR": -0.011010798, "MEAN_MOTION_DOT": -0.01596358, "MEAN_MOTION_DDOT": 0}, "tle": {"line1": "1 67016U 25293P   25359.25004630 -.01596358  00000+0 -11011-1 0  9998", "line2": "2 67016  69.9929 287.5588 0003599 269.5861  60.5745 15.77431906  2127"}}, "geometry": {"type": "Point", "coordinates": [153.32792786942713, -63.44579331421106]}}, {"type": "Feature", "properties": {"norad_id": 67017, "name": "STARLINK-35498", "group": "last-30-days", "lat": -66.23127896935375, "lon": 162.34431036065178, "alt_km": 345.928461473035, "timestamp": "2025-12-25T14:48:23.572256+00:00", "meta": {"OBJECT_NAME": "STARLINK-35498", "OBJECT_ID": "2025-293Q", "EPOCH": "2025-12-25T06:00:04.000320", "MEAN_MOTION": 15.77393261, "ECCENTRICITY": 0.00037052, "INCLINATION": 69.9922, "RA_OF_ASC_NODE": 287.5527, "ARG_OF_PERICENTER": 269.5382, "MEAN_ANOMALY": 65.4144, "EPHEMERIS_TYPE": 0, "CLASSIFICATION_TYPE": "U", "NORAD_CAT_ID": 67017, "ELEMENT_SET_NO": 999, "REV_AT_EPOCH": 231, "BSTAR": -0.011028178, "MEAN_MOTION_DOT": -0.01596243, "MEAN_MOTION_DDOT": 0}, "tle": {"line1": "1 67017U 25293Q   25359.25004630 -.01596243  00000+0 -11028-1 0  9990", "line2": "2 67017  69.9922 287.5527 0003705 269.5382  65.4144 15.77393261  2310"}}, "geometry": {"type": "Point", "coordinates": [162.34431036065178, -66.23127896935375]}}, {"type": "Feature", "properties": {"norad_id": 67018, "name": "STARLINK-36106", "group": "last-30-days", "lat": -67.37511085378974, "lon": 167.47263309674935, "alt_km": 345.9602655774024, "timestamp": "2025-12-25T14:48:23.572265+00:00", "meta": {"OBJECT_NAME": "STARLINK-36106", "OBJECT_ID": "2025-293R", "EPOCH": "2025-12-25T06:00:04.000320", "MEAN_MOTION": 15.77367614, "ECCENTRICITY": 0.00037242, "INCLINATION": 69.9922, "RA_OF_ASC_NODE": 287.5495, "ARG_OF_PERICENTER": 269.4439, "MEAN_ANOMALY": 67.863, "EPHEMERIS_TYPE": 0, "CLASSIFICATION_TYPE": "U", "NORAD_CAT_ID": 67018, "ELEMENT_SET_NO": 999, "REV_AT_EPOCH": 223, "BSTAR": -0.010980577, "MEAN_MOTION_DOT": -0.01588658, "MEAN_MOTION_DDOT": 0}, "tle": {"line1": "1 67018U 25293R   25359.25004630 -.01588658  00000+0 -10981-1 0  9999", "line2": "2 67018  69.9922 287.5495 0003724 269.4439  67.8630 15.77367614  2238"}}, "geometry": {"type": "Point", "coordinates": [167.47263309674935, -67.37511085378974]}}, {"type": "Feature", "properties": {"norad_id": 67019, "name": "STARLINK-35688", "group": "last-30-days", "lat": -68.29960567937027, "lon": 172.80468973220096, "alt_km": 345.99948482075706, "timestamp": "2025-12-25T14:48:23.572275+00:00", "meta": {"OBJECT_NAME": "STARLINK-35688", "OBJECT_ID": "2025-293S", "EPOCH": "2025-12-25T06:00:04.000320", "MEAN_MOTION": 15.77363438, "ECCENTRICITY": 0.00037144, "INCLINATION": 69.9921, "RA_OF_ASC_NODE": 287.5467, "ARG_OF_PERICENTER": 270.1367, "MEAN_ANOMALY": 69.3982, "EPHEMERIS_TYPE": 0, "CLASSIFICATION_TYPE": "U", "NORAD_CAT_ID": 67019, "ELEMENT_SET_NO": 999, "REV_AT_EPOCH": 231, "BSTAR": -0.011045478, "MEAN_MOTION_DOT": -0.0159657, "MEAN_MOTION_DDOT": 0}, "tle": {"line1": "1 67019U 25293S   25359.25004630 -.01596570  00000+0 -11045-1 0  9994", "line2": "2 67019  69.9921 287.5467 0003714 270.1367  69.3982 15.77363438  2311"}}, "geometry": {"type": "Point", "coordinates": [172.80468973220096, -68.29960567937027]}}]}